[
  {
    "name": "ONEWEB-0572",
    "noradId": "55151",
    "line1": "1 55151U 23004M   26201.39969403 -.00000072  00000+0 -21917-3 0  9993",
    "line2": "2 55151  87.9152 359.2583 0002000  91.5194 268.6167 13.17648221171850"
  },
  {
    "name": "ONEWEB-0573",
    "noradId": "55152",
    "line1": "1 55152U 23004N   26201.80413551  .00000028  00000+0  38142-4 0  9996",
    "line2": "2 55152  87.9194 328.7835 0002737  92.5913 267.5532 13.18684015174124"
  },
  {
    "name": "ONEWEB-0588",
    "noradId": "55153",
    "line1": "1 55153U 23004P   26201.79739545 -.00000014  00000+0 -68889-4 0  9997",
    "line2": "2 55153  87.9190 328.7843 0002034  84.9339 275.2025 13.18686472174129"
  },
  {
    "name": "ONEWEB-0598",
    "noradId": "55154",
    "line1": "1 55154U 23004Q   26201.73083480 -.00000312  00000+0 -91746-3 0  9990",
    "line2": "2 55154  87.8889  14.3888 0002573  95.8689 264.2732 13.11416195170291"
  },
  {
    "name": "ONEWEB-0599",
    "noradId": "55155",
    "line1": "1 55155U 23004R   26201.81649448  .00000043  00000+0  78077-4 0  9994",
    "line2": "2 55155  87.9152 359.1741 0001945 100.9074 259.2276 13.17647712171916"
  },
  {
    "name": "ONEWEB-0614",
    "noradId": "55156",
    "line1": "1 55156U 23004S   26201.72574963 -.00000234  00000+0 -69664-3 0  9999",
    "line2": "2 55156  87.8886  14.3977 0001687  85.7723 274.3598 13.11414922170233"
  },
  {
    "name": "ONEWEB-0616",
    "noradId": "55157",
    "line1": "1 55157U 23004T   26201.85868019  .00000040  00000+0  69313-4 0  9997",
    "line2": "2 55157  87.9153 359.1698 0002031 121.3261 238.8069 13.17647741172132"
  },
  {
    "name": "ONEWEB-0617",
    "noradId": "55158",
    "line1": "1 55158U 23004U   26201.86647078  .00000298  00000+0  80560-3 0  9990",
    "line2": "2 55158  87.8893  14.3627 0001786  80.3362 279.7968 13.11416216170277"
  },
  {
    "name": "ONEWEB-0618",
    "noradId": "55159",
    "line1": "1 55159U 23004V   26201.51879504  .00003670  00000+0  20325-3 0  9994",
    "line2": "2 55159  86.9106 164.1006 0013082 156.7623 203.4211 15.13434075187304"
  },
  {
    "name": "ONEWEB-0619",
    "noradId": "55160",
    "line1": "1 55160U 23004W   26201.81480626 -.00000018  00000+0 -79579-4 0  9993",
    "line2": "2 55160  87.9166 359.1623 0001427  95.5394 264.5901 13.17647769172024"
  },
  {
    "name": "ONEWEB-0620",
    "noradId": "55161",
    "line1": "1 55161U 23004X   26201.86139367  .00000463  00000+0  12700-2 0  9995",
    "line2": "2 55161  87.8886  14.3703 0002100  89.6083 270.5285 13.11416146170241"
  },
  {
    "name": "ONEWEB-0621",
    "noradId": "55162",
    "line1": "1 55162U 23004Y   26201.73592299 -.00000489  00000+0 -14145-2 0  9994",
    "line2": "2 55162  87.8896  14.3872 0001648  86.3118 273.8198 13.11415979170207"
  },
  {
    "name": "ONEWEB-0622",
    "noradId": "55163",
    "line1": "1 55163U 23004Z   26201.74100844 -.00000474  00000+0 -13745-2 0  9996",
    "line2": "2 55163  87.8898  14.3894 0002026  70.2330 289.9016 13.11417385170191"
  },
  {
    "name": "ONEWEB-0623",
    "noradId": "55164",
    "line1": "1 55164U 23004AA  26201.43007073  .00000116  00000+0  26518-3 0  9997",
    "line2": "2 55164  87.9150 359.2648 0001432  71.4885 288.6402 13.17648598171969"
  },
  {
    "name": "ONEWEB-0624",
    "noradId": "55165",
    "line1": "1 55165U 23004AB  26201.80304829 -.00000335  00000+0 -95967-3 0  9997",
    "line2": "2 55165  87.8973 343.8962 0001747  92.5937 267.5391 13.12928418172489"
  },
  {
    "name": "ONEWEB-0625",
    "noradId": "55166",
    "line1": "1 55166U 23004AC  26201.79962220  .00000098  00000+0  22043-3 0  9990",
    "line2": "2 55166  87.9153 359.1875 0001787  99.2178 260.9156 13.17648254172005"
  },
  {
    "name": "ONEWEB-0626",
    "noradId": "55167",
    "line1": "1 55167U 23004AD  26201.86544632 -.00000032  00000+0 -11613-3 0  9993",
    "line2": "2 55167  87.9153 359.1743 0002189  96.8775 263.2605 13.17647875172017"
  },
  {
    "name": "ONEWEB-0627",
    "noradId": "55168",
    "line1": "1 55168U 23004AE  26201.85363105  .00000020  00000+0  19439-4 0  9997",
    "line2": "2 55168  87.9153 359.1771 0001556  79.9972 280.1335 13.17648699172010"
  },
  {
    "name": "ONEWEB-0628",
    "noradId": "55169",
    "line1": "1 55169U 23004AF  26201.64440381 -.00000203  00000+0 -60056-3 0  9992",
    "line2": "2 55169  87.8978 344.0018 0001318  84.2805 275.8474 13.12439100172422"
  },
  {
    "name": "ONEWEB-0629",
    "noradId": "55170",
    "line1": "1 55170U 23004AG  26201.82915613 -.00000053  00000+0 -16920-3 0  9993",
    "line2": "2 55170  87.9153 359.1775 0001568  97.1739 262.9571 13.17650025172019"
  },
  {
    "name": "ONEWEB-0631",
    "noradId": "55171",
    "line1": "1 55171U 23004AH  26201.86652826  .00000003  00000+0 -24423-4 0  9994",
    "line2": "2 55171  87.9200 328.7400 0002242  88.3145 271.8244 13.18686772174111"
  },
  {
    "name": "ONEWEB-0709",
    "noradId": "55172",
    "line1": "1 55172U 23004AJ  26201.85123001  .00000556  00000+0  15327-2 0  9995",
    "line2": "2 55172  87.8888  14.3747 0002724  95.1807 264.9632 13.11417218170289"
  },
  {
    "name": "ONEWEB-0710",
    "noradId": "55173",
    "line1": "1 55173U 23004AK  26201.84350466  .00000025  00000+0  30177-4 0  9995",
    "line2": "2 55173  87.9154 359.1703 0001852  89.0025 271.1318 13.17648391172012"
  },
  {
    "name": "ONEWEB-0711",
    "noradId": "55174",
    "line1": "1 55174U 23004AL  26201.44090798 -.00000322  00000+0 -94523-3 0  9997",
    "line2": "2 55174  87.8891  14.4450 0001699  68.2050 291.9259 13.11418542170194"
  },
  {
    "name": "ONEWEB-0713",
    "noradId": "55175",
    "line1": "1 55175U 23004AM  26201.38327680  .00000378  00000+0  10297-2 0  9998",
    "line2": "2 55175  87.8892  14.4584 0001750  79.4070 280.7255 13.11418166170170"
  },
  {
    "name": "ONEWEB-0715",
    "noradId": "55176",
    "line1": "1 55176U 23004AN  26201.45448535  .00000184  00000+0  48195-3 0  9994",
    "line2": "2 55176  87.8890  14.4445 0002519  87.5688 272.5729 13.11418434170223"
  },
  {
    "name": "ONEWEB-0716",
    "noradId": "55177",
    "line1": "1 55177U 23004AP  26201.38113639  .00000036  00000+0  60399-4 0  9998",
    "line2": "2 55177  87.9151 359.2649 0001823 100.8399 259.2937 13.17648996171954"
  },
  {
    "name": "ONEWEB-0717",
    "noradId": "55178",
    "line1": "1 55178U 23004AQ  26201.36425485 -.00000029  00000+0 -10873-3 0  9997",
    "line2": "2 55178  87.9158 359.2593 0001729  86.8092 273.3237 13.17648642172003"
  },
  {
    "name": "ONEWEB-0719",
    "noradId": "55179",
    "line1": "1 55179U 23004AR  26201.37437653  .00000003  00000+0 -24176-4 0  9992",
    "line2": "2 55179  87.9161 359.2371 0001711  98.2872 261.8454 13.17647809171956"
  },
  {
    "name": "ONEWEB-0530",
    "noradId": "55796",
    "line1": "1 55796U 23029A   26201.72593678 -.00000018  00000+0 -75144-4 0  9991",
    "line2": "2 55796  87.9171 267.7827 0001733  88.3461 271.7871 13.20770090165576"
  }
]