OBJECT_NAME,OBJECT_ID,EPOCH,MEAN_MOTION,ECCENTRICITY,INCLINATION,RA_OF_ASC_NODE,ARG_OF_PERICENTER,MEAN_ANOMALY,EPHEMERIS_TYPE,CLASSIFICATION_TYPE,NORAD_CAT_ID,ELEMENT_SET_NO,REV_AT_EPOCH,BSTAR,MEAN_MOTION_DOT,MEAN_MOTION_DDOT
ONEWEB-0572,2023-004M,2026-07-20T09:35:33.564192,13.17648221,.00020005,87.9152,359.2583,91.5194,268.6167,0,U,55151,999,17185,-.21916935E-3,-.72E-6,0
ONEWEB-0573,2023-004N,2026-07-20T19:17:57.308064,13.18684015,.0002737,87.9194,328.7835,92.5913,267.5532,0,U,55152,999,17412,.38142E-4,.28E-6,0
ONEWEB-0588,2023-004P,2026-07-20T19:08:14.966880,13.18686472,.0002034,87.9190,328.7843,84.9339,275.2025,0,U,55153,999,17412,-.68889E-4,-.14E-6,0
ONEWEB-0598,2023-004Q,2026-07-20T17:32:24.126720,13.11416195,.0002573,87.8889,14.3888,95.8689,264.2732,0,U,55154,999,17029,-.91746E-3,-.312E-5,0
ONEWEB-0599,2023-004R,2026-07-20T19:35:45.123072,13.17647712,.0001945,87.9152,359.1741,100.9074,259.2276,0,U,55155,999,17191,.78077E-4,.43E-6,0
ONEWEB-0614,2023-004S,2026-07-20T17:25:04.768032,13.11414922,.0001687,87.8886,14.3977,85.7723,274.3598,0,U,55156,999,17023,-.69664E-3,-.234E-5,0
ONEWEB-0616,2023-004T,2026-07-20T20:36:29.968416,13.17647741,.0002031,87.9153,359.1698,121.3261,238.8069,0,U,55157,999,17213,.69313E-4,.4E-6,0
ONEWEB-0617,2023-004U,2026-07-20T20:47:43.075392,13.11416216,.0001786,87.8893,14.3627,80.3362,279.7968,0,U,55158,999,17027,.8056E-3,.298E-5,0
ONEWEB-0618,2023-004V,2026-07-20T12:27:03.891456,15.13434075,.00130827,86.9106,164.1006,156.7623,203.4211,0,U,55159,999,18730,.20325383E-3,.367E-4,0
ONEWEB-0619,2023-004W,2026-07-20T19:33:19.260864,13.17647769,.0001427,87.9166,359.1623,95.5394,264.5901,0,U,55160,999,17202,-.79579E-4,-.18E-6,0
ONEWEB-0620,2023-004X,2026-07-20T20:40:24.413088,13.11416146,.00021,87.8886,14.3703,89.6083,270.5285,0,U,55161,999,17024,.127E-2,.463E-5,0
ONEWEB-0621,2023-004Y,2026-07-20T17:39:43.746336,13.11415979,.0001648,87.8896,14.3872,86.3118,273.8198,0,U,55162,999,17020,-.14145E-2,-.489E-5,0
ONEWEB-0622,2023-004Z,2026-07-20T17:47:03.129216,13.11417385,.0002026,87.8898,14.3894,70.2330,289.9016,0,U,55163,999,17019,-.13745E-2,-.474E-5,0
ONEWEB-0623,2023-004AA,2026-07-20T10:19:18.111072,13.17648598,.0001432,87.9150,359.2648,71.4885,288.6402,0,U,55164,999,17196,.26518E-3,.116E-5,0
ONEWEB-0624,2023-004AB,2026-07-20T19:16:23.372256,13.12928418,.0001747,87.8973,343.8962,92.5937,267.5391,0,U,55165,999,17248,-.95967E-3,-.335E-5,0
ONEWEB-0625,2023-004AC,2026-07-20T19:11:27.358080,13.17648254,.0001787,87.9153,359.1875,99.2178,260.9156,0,U,55166,999,17200,.22043E-3,.98E-6,0
ONEWEB-0626,2023-004AD,2026-07-20T20:46:14.562048,13.17647875,.0002189,87.9153,359.1743,96.8775,263.2605,0,U,55167,999,17201,-.11613E-3,-.32E-6,0
ONEWEB-0627,2023-004AE,2026-07-20T20:29:13.722720,13.17648699,.0001556,87.9153,359.1771,79.9972,280.1335,0,U,55168,999,17201,.19439E-4,.2E-6,0
ONEWEB-0628,2023-004AF,2026-07-20T15:27:56.489184,13.12439100,.0001318,87.8978,344.0018,84.2805,275.8474,0,U,55169,999,17242,-.60056E-3,-.203E-5,0
ONEWEB-0629,2023-004AG,2026-07-20T19:53:59.089632,13.17650025,.0001568,87.9153,359.1775,97.1739,262.9571,0,U,55170,999,17201,-.1692E-3,-.53E-6,0
ONEWEB-0631,2023-004AH,2026-07-20T20:47:48.041664,13.18686772,.0002242,87.9200,328.7400,88.3145,271.8244,0,U,55171,999,17411,-.24423E-4,.3E-7,0
ONEWEB-0709,2023-004AJ,2026-07-20T20:25:46.272864,13.11417218,.0002724,87.8888,14.3747,95.1807,264.9632,0,U,55172,999,17028,.15327E-2,.556E-5,0
ONEWEB-0710,2023-004AK,2026-07-20T20:14:38.802624,13.17648391,.0001852,87.9154,359.1703,89.0025,271.1318,0,U,55173,999,17201,.30177E-4,.25E-6,0
ONEWEB-0711,2023-004AL,2026-07-20T10:34:54.449472,13.11418542,.00016992,87.8891,14.4450,68.2050,291.9259,0,U,55174,999,17019,-.94523496E-3,-.322E-5,0
ONEWEB-0713,2023-004AM,2026-07-20T09:11:55.115520,13.11418166,.00017501,87.8892,14.4584,79.4070,280.7255,0,U,55175,999,17017,.10297193E-2,.378E-5,0
ONEWEB-0715,2023-004AN,2026-07-20T10:54:27.534240,13.11418434,.00025193,87.8890,14.4445,87.5688,272.5729,0,U,55176,999,17022,.48195135E-3,.184E-5,0
ONEWEB-0716,2023-004AP,2026-07-20T09:08:50.184096,13.17648996,.00018234,87.9151,359.2649,100.8399,259.2937,0,U,55177,999,17195,.60399344E-4,.36E-6,0
ONEWEB-0717,2023-004AQ,2026-07-20T08:44:31.619040,13.17648642,.00017293,87.9158,359.2593,86.8092,273.3237,0,U,55178,999,17200,-.10873228E-3,-.29E-6,0
ONEWEB-0719,2023-004AR,2026-07-20T08:59:06.132192,13.17647809,.00017116,87.9161,359.2371,98.2872,261.8454,0,U,55179,999,17195,-.24176468E-4,.3E-7,0
ONEWEB-0530,2023-029A,2026-07-20T17:25:20.937792,13.20770090,.0001733,87.9171,267.7827,88.3461,271.7871,0,U,55796,999,16557,-.75144E-4,-.18E-6,0
